IRIDIUM 106             
1 41917U 17003A   25238.46303596  .00000130  00000+0  39479-4 0  9998
2 41917  86.3981 211.6342 0002595  95.1345 265.0147 14.34218442450968
IRIDIUM 103             
1 41918U 17003B   25238.45034898  .00000105  00000+0  30516-4 0  9999
2 41918  86.3981 211.5402 0001837  97.7396 262.4009 14.34218335450988
IRIDIUM 109             
1 41919U 17003C   25238.45669242  .00000092  00000+0  25696-4 0  9995
2 41919  86.3984 211.5922 0002119  85.3505 274.7933 14.34218216450955
IRIDIUM 102             
1 41920U 17003D   25238.42497934  .00000082  00000+0  22112-4 0  9990
2 41920  86.3980 211.5353 0002266  83.5433 276.6021 14.34218240451030
IRIDIUM 105             
1 41921U 17003E   25238.53525540  .00000265  00000+0  87700-4 0  9995
2 41921  86.4038 179.9911 0002116  87.7046 272.4393 14.34219411452907
IRIDIUM 104             
1 41922U 17003F   25238.36788673  .00000257  00000+0  84567-4 0  9994
2 41922  86.3982 211.5972 0001896  83.8815 276.2597 14.34220849451016
IRIDIUM 114             
1 41923U 17003G   25238.44400660  .00000272  00000+0  90069-4 0  9992
2 41923  86.3982 211.5497 0002136  92.5649 267.5791 14.34218036451002
IRIDIUM 108             
1 41924U 17003H   25238.12345557  .00000031  00000+0  40955-5 0  9994
2 41924  86.4033 180.0599 0002433  84.7277 275.4196 14.34217716452815
